CCSDS_OMM_VERS = 2.0
CREATION_DATE  = 
ORIGINATOR     = 

OBJECT_NAME    = ATLAS CENTAUR 2
OBJECT_ID      = 1963-047A
CENTER_NAME    = EARTH
REF_FRAME      = TEME
TIME_SYSTEM    = UTC
MEAN_ELEMENT_THEORY = SGP/SGP4

EPOCH          = 2025-12-13T15:26:52.929888
MEAN_MOTION    = 14.11765806
ECCENTRICITY   = .05489382
INCLINATION    = 30.3546
RA_OF_ASC_NODE = 316.4089
ARG_OF_PERICENTER = 42.1419
MEAN_ANOMALY   = 322.0082

EPHEMERIS_TYPE = 0
CLASSIFICATION_TYPE = U
NORAD_CAT_ID   = 694
ELEMENT_SET_NO = 999
REV_AT_EPOCH   = 11945
BSTAR          = .42512878E-3
MEAN_MOTION_DOT = .354E-4
MEAN_MOTION_DDOT = 0

CCSDS_OMM_VERS = 2.0
CREATION_DATE  = 
ORIGINATOR     = 

OBJECT_NAME    = THOR AGENA D R/B
OBJECT_ID      = 1964-002A
CENTER_NAME    = EARTH
REF_FRAME      = TEME
TIME_SYSTEM    = UTC
MEAN_ELEMENT_THEORY = SGP/SGP4

EPOCH          = 2025-12-13T15:06:26.988192
MEAN_MOTION    = 14.33960358
ECCENTRICITY   = .00333951
INCLINATION    = 99.1218
RA_OF_ASC_NODE = 351.2962
ARG_OF_PERICENTER = 147.6698
MEAN_ANOMALY   = 212.6540

EPHEMERIS_TYPE = 0
CLASSIFICATION_TYPE = U
NORAD_CAT_ID   = 733
ELEMENT_SET_NO = 999
REV_AT_EPOCH   = 22596
BSTAR          = .15038232E-3
MEAN_MOTION_DOT = .373E-5
MEAN_MOTION_DDOT = 0

CCSDS_OMM_VERS = 2.0
CREATION_DATE  = 
ORIGINATOR     = 

OBJECT_NAME    = SL-3 R/B
OBJECT_ID      = 1964-053B
CENTER_NAME    = EARTH
REF_FRAME      = TEME
TIME_SYSTEM    = UTC
MEAN_ELEMENT_THEORY = SGP/SGP4

EPOCH          = 2025-12-13T16:01:04.176480
MEAN_MOTION    = 14.61276980
ECCENTRICITY   = .00739383
INCLINATION    = 65.0763
RA_OF_ASC_NODE = 223.4144
ARG_OF_PERICENTER = 320.0506
MEAN_ANOMALY   = 39.5167

EPHEMERIS_TYPE = 0
CLASSIFICATION_TYPE = U
NORAD_CAT_ID   = 877
ELEMENT_SET_NO = 999
REV_AT_EPOCH   = 25422
BSTAR          = .10873847E-3
MEAN_MOTION_DOT = .434E-5
MEAN_MOTION_DDOT = 0

CCSDS_OMM_VERS = 2.0
CREATION_DATE  = 
ORIGINATOR     = 

OBJECT_NAME    = SL-8 R/B
OBJECT_ID      = 1967-045B
CENTER_NAME    = EARTH
REF_FRAME      = TEME
TIME_SYSTEM    = UTC
MEAN_ELEMENT_THEORY = SGP/SGP4

EPOCH          = 2025-12-13T16:37:07.191840
MEAN_MOTION    = 14.45538353
ECCENTRICITY   = .00642415
INCLINATION    = 74.0098
RA_OF_ASC_NODE = 148.6838
ARG_OF_PERICENTER = 177.7994
MEAN_ANOMALY   = 182.3460

EPHEMERIS_TYPE = 0
CLASSIFICATION_TYPE = U
NORAD_CAT_ID   = 2802
ELEMENT_SET_NO = 999
REV_AT_EPOCH   = 7659
BSTAR          = .20321592E-3
MEAN_MOTION_DOT = .707E-5
MEAN_MOTION_DDOT = 0

CCSDS_OMM_VERS = 2.0
CREATION_DATE  = 
ORIGINATOR     = 

OBJECT_NAME    = SL-8 R/B
OBJECT_ID      = 1968-040B
CENTER_NAME    = EARTH
REF_FRAME      = TEME
TIME_SYSTEM    = UTC
MEAN_ELEMENT_THEORY = SGP/SGP4

EPOCH          = 2025-12-13T12:08:32.532576
MEAN_MOTION    = 15.02536885
ECCENTRICITY   = .00255137
INCLINATION    = 74.0302
RA_OF_ASC_NODE = 129.6954
ARG_OF_PERICENTER = 331.1420
MEAN_ANOMALY   = 28.8355

EPHEMERIS_TYPE = 0
CLASSIFICATION_TYPE = U
NORAD_CAT_ID   = 3230
ELEMENT_SET_NO = 999
REV_AT_EPOCH   = 7706
BSTAR          = .39923486E-3
MEAN_MOTION_DOT = .5306E-4
MEAN_MOTION_DDOT = 0

CCSDS_OMM_VERS = 2.0
CREATION_DATE  = 
ORIGINATOR     = 

OBJECT_NAME    = OAO 2
OBJECT_ID      = 1968-110A
CENTER_NAME    = EARTH
REF_FRAME      = TEME
TIME_SYSTEM    = UTC
MEAN_ELEMENT_THEORY = SGP/SGP4

EPOCH          = 2025-12-13T13:07:20.926272
MEAN_MOTION    = 14.47245116
ECCENTRICITY   = .00059436
INCLINATION    = 34.9946
RA_OF_ASC_NODE = 26.1543
ARG_OF_PERICENTER = 230.4359
MEAN_ANOMALY   = 129.5807

EPHEMERIS_TYPE = 0
CLASSIFICATION_TYPE = U
NORAD_CAT_ID   = 3597
ELEMENT_SET_NO = 999
REV_AT_EPOCH   = 661
BSTAR          = .12031121E-3
MEAN_MOTION_DOT = .427E-5
MEAN_MOTION_DDOT = 0

CCSDS_OMM_VERS = 2.0
CREATION_DATE  = 
ORIGINATOR     = 

OBJECT_NAME    = ISIS 1
OBJECT_ID      = 1969-009A
CENTER_NAME    = EARTH
REF_FRAME      = TEME
TIME_SYSTEM    = UTC
MEAN_ELEMENT_THEORY = SGP/SGP4

EPOCH          = 2025-12-13T05:41:01.248864
MEAN_MOTION    = 11.30354946
ECCENTRICITY   = .17068724
INCLINATION    = 88.4484
RA_OF_ASC_NODE = 164.7420
ARG_OF_PERICENTER = 263.6922
MEAN_ANOMALY   = 76.7924

EPHEMERIS_TYPE = 0
CLASSIFICATION_TYPE = U
NORAD_CAT_ID   = 3669
ELEMENT_SET_NO = 999
REV_AT_EPOCH   = 33876
BSTAR          = .25737665E-3
MEAN_MOTION_DOT = .354E-5
MEAN_MOTION_DDOT = 0

CCSDS_OMM_VERS = 2.0
CREATION_DATE  = 
ORIGINATOR     = 

OBJECT_NAME    = SERT 2
OBJECT_ID      = 1970-009A
CENTER_NAME    = EARTH
REF_FRAME      = TEME
TIME_SYSTEM    = UTC
MEAN_ELEMENT_THEORY = SGP/SGP4

EPOCH          = 2025-12-13T16:36:33.143328
MEAN_MOTION    = 13.58717805
ECCENTRICITY   = .00053855
INCLINATION    = 99.2651
RA_OF_ASC_NODE = 290.5394
ARG_OF_PERICENTER = 32.2888
MEAN_ANOMALY   = 35.8486

EPHEMERIS_TYPE = 0
CLASSIFICATION_TYPE = U
NORAD_CAT_ID   = 4327
ELEMENT_SET_NO = 999
REV_AT_EPOCH   = 76821
BSTAR          = .12783967E-3
MEAN_MOTION_DOT = .52E-6
MEAN_MOTION_DDOT = 0

CCSDS_OMM_VERS = 2.0
CREATION_DATE  = 
ORIGINATOR     = 

OBJECT_NAME    = SL-3 R/B
OBJECT_ID      = 1971-028B
CENTER_NAME    = EARTH
REF_FRAME      = TEME
TIME_SYSTEM    = UTC
MEAN_ELEMENT_THEORY = SGP/SGP4

EPOCH          = 2025-12-13T15:23:17.747232
MEAN_MOTION    = 15.54511078
ECCENTRICITY   = .00193074
INCLINATION    = 81.2372
RA_OF_ASC_NODE = 157.7476
ARG_OF_PERICENTER = 237.2886
MEAN_ANOMALY   = 122.6503

EPHEMERIS_TYPE = 0
CLASSIFICATION_TYPE = U
NORAD_CAT_ID   = 5118
ELEMENT_SET_NO = 999
REV_AT_EPOCH   = 97527
BSTAR          = .5021976E-3
MEAN_MOTION_DOT = .33455E-3
MEAN_MOTION_DDOT = 0

CCSDS_OMM_VERS = 2.0
CREATION_DATE  = 
ORIGINATOR     = 

OBJECT_NAME    = ASTEX 1
OBJECT_ID      = 1971-089A
CENTER_NAME    = EARTH
REF_FRAME      = TEME
TIME_SYSTEM    = UTC
MEAN_ELEMENT_THEORY = SGP/SGP4

EPOCH          = 2025-12-13T09:28:28.267104
MEAN_MOTION    = 14.50644198
ECCENTRICITY   = .00163356
INCLINATION    = 92.7139
RA_OF_ASC_NODE = 123.8309
ARG_OF_PERICENTER = 23.8593
MEAN_ANOMALY   = 336.3367

EPHEMERIS_TYPE = 0
CLASSIFICATION_TYPE = U
NORAD_CAT_ID   = 5560
ELEMENT_SET_NO = 999
REV_AT_EPOCH   = 84979
BSTAR          = .23571737E-3
MEAN_MOTION_DOT = .925E-5
MEAN_MOTION_DDOT = 0

CCSDS_OMM_VERS = 2.0
CREATION_DATE  = 
ORIGINATOR     = 

OBJECT_NAME    = SL-8 R/B
OBJECT_ID      = 1971-119B
CENTER_NAME    = EARTH
REF_FRAME      = TEME
TIME_SYSTEM    = UTC
MEAN_ELEMENT_THEORY = SGP/SGP4

EPOCH          = 2025-12-13T15:53:47.083200
MEAN_MOTION    = 14.35756482
ECCENTRICITY   = .05592415
INCLINATION    = 73.8888
RA_OF_ASC_NODE = 336.2737
ARG_OF_PERICENTER = 320.3540
MEAN_ANOMALY   = 35.7939

EPHEMERIS_TYPE = 0
CLASSIFICATION_TYPE = U
NORAD_CAT_ID   = 5730
ELEMENT_SET_NO = 999
REV_AT_EPOCH   = 64313
BSTAR          = .76566481E-3
MEAN_MOTION_DOT = .14698E-3
MEAN_MOTION_DDOT = 0

CCSDS_OMM_VERS = 2.0
CREATION_DATE  = 
ORIGINATOR     = 

OBJECT_NAME    = OAO 3 (COPERNICUS)
OBJECT_ID      = 1972-065A
CENTER_NAME    = EARTH
REF_FRAME      = TEME
TIME_SYSTEM    = UTC
MEAN_ELEMENT_THEORY = SGP/SGP4

EPOCH          = 2025-12-13T15:38:46.328640
MEAN_MOTION    = 14.59907441
ECCENTRICITY   = .00065374
INCLINATION    = 35.0062
RA_OF_ASC_NODE = 67.4693
ARG_OF_PERICENTER = 182.0464
MEAN_ANOMALY   = 330.6080

EPHEMERIS_TYPE = 0
CLASSIFICATION_TYPE = U
NORAD_CAT_ID   = 6153
ELEMENT_SET_NO = 999
REV_AT_EPOCH   = 83361
BSTAR          = .12358142E-3
MEAN_MOTION_DOT = .58E-5
MEAN_MOTION_DDOT = 0

