ATLAS CENTAUR 2         
1 00694U 63047A   25347.64366817  .00003540  00000+0  42513-3 0  9990
2 00694  30.3546 316.4089 0548938  42.1419 322.0082 14.11765806119457
THOR AGENA D R/B        
1 00733U 64002A   25347.62947903  .00000373  00000+0  15038-3 0  9998
2 00733  99.1218 351.2962 0033395 147.6698 212.6540 14.33960358225963
SL-3 R/B                
1 00877U 64053B   25347.66740945  .00000434  00000+0  10874-3 0  9995
2 00877  65.0763 223.4144 0073938 320.0506  39.5167 14.61276980254227
SL-8 R/B                
1 02802U 67045B   25347.69244435  .00000707  00000+0  20322-3 0  9997
2 02802  74.0098 148.6838 0064241 177.7994 182.3460 14.45538353 76593
SL-8 R/B                
1 03230U 68040B   25347.50593209  .00005306  00000+0  39923-3 0  9992
2 03230  74.0302 129.6954 0025513 331.1420  28.8355 15.02536885 77066
OAO 2                   
1 03597U 68110A   25347.54676998  .00000427  00000+0  12031-3 0  9997
2 03597  34.9946  26.1543 0005943 230.4359 129.5807 14.47245116  6619
ISIS 1                  
1 03669U 69009A   25347.23682001  .00000354  00000+0  25738-3 0  9990
2 03669  88.4484 164.7420 1706872 263.6922  76.7924 11.30354946338765
SERT 2                  
1 04327U 70009A   25347.69205027  .00000052  00000+0  12784-3 0  9995
2 04327  99.2651 290.5394 0005385  32.2888  35.8486 13.58717805768217
SL-3 R/B                
1 05118U 71028B   25347.64117763  .00033455  00000+0  50220-3 0  9990
2 05118  81.2372 157.7476 0019307 237.2886 122.6503 15.54511078975279
ASTEX 1                 
1 05560U 71089A   25347.39477161  .00000925  00000+0  23572-3 0  9997
2 05560  92.7139 123.8309 0016335  23.8593 336.3367 14.50644198849793
SL-8 R/B                
1 05730U 71119B   25347.66235050  .00014698  00000+0  76566-3 0  9992
2 05730  73.8888 336.2737 0559241 320.3540  35.7939 14.35756482643131
OAO 3 (COPERNICUS)      
1 06153U 72065A   25347.65192510  .00000580  00000+0  12358-3 0  9999
2 06153  35.0062  67.4693 0006537 182.0464 330.6080 14.59907441833619
